CCSDS_OMM_VERS = 2.0
CREATION_DATE  = 
ORIGINATOR     = 

OBJECT_NAME    = SL-16 R/B
OBJECT_ID      = 1998-043G
CENTER_NAME    = EARTH
REF_FRAME      = TEME
TIME_SYSTEM    = UTC
MEAN_ELEMENT_THEORY = SGP/SGP4

EPOCH          = 2026-01-20T07:38:50.724960
MEAN_MOTION    = 14.26035848
ECCENTRICITY   = .00103101
INCLINATION    = 98.8180
RA_OF_ASC_NODE = 333.3633
ARG_OF_PERICENTER = 149.4055
MEAN_ANOMALY   = 210.7727

EPHEMERIS_TYPE = 0
CLASSIFICATION_TYPE = U
NORAD_CAT_ID   = 25400
ELEMENT_SET_NO = 999
REV_AT_EPOCH   = 43209
BSTAR          = .60158131E-4
MEAN_MOTION_DOT = .99E-6
MEAN_MOTION_DDOT = 0

CCSDS_OMM_VERS = 2.0
CREATION_DATE  = 
ORIGINATOR     = 

OBJECT_NAME    = SL-16 R/B
OBJECT_ID      = 1998-045B
CENTER_NAME    = EARTH
REF_FRAME      = TEME
TIME_SYSTEM    = UTC
MEAN_ELEMENT_THEORY = SGP/SGP4

EPOCH          = 2026-01-20T04:32:47.291136
MEAN_MOTION    = 14.16183249
ECCENTRICITY   = .00052442
INCLINATION    = 71.0116
RA_OF_ASC_NODE = 283.5694
ARG_OF_PERICENTER = 104.2557
MEAN_ANOMALY   = 255.9149

EPHEMERIS_TYPE = 0
CLASSIFICATION_TYPE = U
NORAD_CAT_ID   = 25407
ELEMENT_SET_NO = 999
REV_AT_EPOCH   = 42023
BSTAR          = .20446627E-3
MEAN_MOTION_DOT = .357E-5
MEAN_MOTION_DDOT = 0

CCSDS_OMM_VERS = 2.0
CREATION_DATE  = 
ORIGINATOR     = 

OBJECT_NAME    = ISS (ZARYA)
OBJECT_ID      = 1998-067A
CENTER_NAME    = EARTH
REF_FRAME      = TEME
TIME_SYSTEM    = UTC
MEAN_ELEMENT_THEORY = SGP/SGP4

EPOCH          = 2026-01-20T04:12:08.025696
MEAN_MOTION    = 15.49442598
ECCENTRICITY   = .00077851
INCLINATION    = 51.6334
RA_OF_ASC_NODE = 312.1983
ARG_OF_PERICENTER = 38.3265
MEAN_ANOMALY   = 321.8276

EPHEMERIS_TYPE = 0
CLASSIFICATION_TYPE = U
NORAD_CAT_ID   = 25544
ELEMENT_SET_NO = 999
REV_AT_EPOCH   = 54881
BSTAR          = .38547648E-3
MEAN_MOTION_DOT = .21194E-3
MEAN_MOTION_DDOT = 0

CCSDS_OMM_VERS = 2.0
CREATION_DATE  = 
ORIGINATOR     = 

OBJECT_NAME    = CZ-4B R/B
OBJECT_ID      = 1999-025C
CENTER_NAME    = EARTH
REF_FRAME      = TEME
TIME_SYSTEM    = UTC
MEAN_ELEMENT_THEORY = SGP/SGP4

EPOCH          = 2026-01-20T03:04:51.654432
MEAN_MOTION    = 14.18253451
ECCENTRICITY   = .0037996
INCLINATION    = 98.6714
RA_OF_ASC_NODE = 65.5397
ARG_OF_PERICENTER = 123.8517
MEAN_ANOMALY   = 299.3717

EPHEMERIS_TYPE = 0
CLASSIFICATION_TYPE = U
NORAD_CAT_ID   = 25732
ELEMENT_SET_NO = 999
REV_AT_EPOCH   = 38128
BSTAR          = .55201673E-4
MEAN_MOTION_DOT = .72E-6
MEAN_MOTION_DDOT = 0

CCSDS_OMM_VERS = 2.0
CREATION_DATE  = 
ORIGINATOR     = 

OBJECT_NAME    = OKEAN-O
OBJECT_ID      = 1999-039A
CENTER_NAME    = EARTH
REF_FRAME      = TEME
TIME_SYSTEM    = UTC
MEAN_ELEMENT_THEORY = SGP/SGP4

EPOCH          = 2026-01-20T02:50:41.652960
MEAN_MOTION    = 14.80237062
ECCENTRICITY   = .00017716
INCLINATION    = 97.9543
RA_OF_ASC_NODE = 80.4785
ARG_OF_PERICENTER = 103.3711
MEAN_ANOMALY   = 256.7698

EPHEMERIS_TYPE = 0
CLASSIFICATION_TYPE = U
NORAD_CAT_ID   = 25860
ELEMENT_SET_NO = 999
REV_AT_EPOCH   = 42720
BSTAR          = .14307244E-3
MEAN_MOTION_DOT = .1036E-4
MEAN_MOTION_DDOT = 0

CCSDS_OMM_VERS = 2.0
CREATION_DATE  = 
ORIGINATOR     = 

OBJECT_NAME    = SL-16 R/B
OBJECT_ID      = 1999-039B
CENTER_NAME    = EARTH
REF_FRAME      = TEME
TIME_SYSTEM    = UTC
MEAN_ELEMENT_THEORY = SGP/SGP4

EPOCH          = 2026-01-20T03:27:57.910464
MEAN_MOTION    = 14.81648714
ECCENTRICITY   = .0015898
INCLINATION    = 98.0066
RA_OF_ASC_NODE = 79.2879
ARG_OF_PERICENTER = 57.8221
MEAN_ANOMALY   = 302.4531

EPHEMERIS_TYPE = 0
CLASSIFICATION_TYPE = U
NORAD_CAT_ID   = 25861
ELEMENT_SET_NO = 999
REV_AT_EPOCH   = 42967
BSTAR          = .10664808E-3
MEAN_MOTION_DOT = .786E-5
MEAN_MOTION_DDOT = 0

CCSDS_OMM_VERS = 2.0
CREATION_DATE  = 
ORIGINATOR     = 

OBJECT_NAME    = DELTA 2 R/B
OBJECT_ID      = 1999-041E
CENTER_NAME    = EARTH
REF_FRAME      = TEME
TIME_SYSTEM    = UTC
MEAN_ELEMENT_THEORY = SGP/SGP4

EPOCH          = 2026-01-20T07:14:23.264160
MEAN_MOTION    = 14.11582304
ECCENTRICITY   = .05033266
INCLINATION    = 51.7630
RA_OF_ASC_NODE = 134.4977
ARG_OF_PERICENTER = 205.4652
MEAN_ANOMALY   = 152.0685

EPHEMERIS_TYPE = 0
CLASSIFICATION_TYPE = U
NORAD_CAT_ID   = 25876
ELEMENT_SET_NO = 999
REV_AT_EPOCH   = 35619
BSTAR          = .55902849E-3
MEAN_MOTION_DOT = .3245E-4
MEAN_MOTION_DDOT = 0

CCSDS_OMM_VERS = 2.0
CREATION_DATE  = 
ORIGINATOR     = 

OBJECT_NAME    = HELIOS 1B
OBJECT_ID      = 1999-064A
CENTER_NAME    = EARTH
REF_FRAME      = TEME
TIME_SYSTEM    = UTC
MEAN_ELEMENT_THEORY = SGP/SGP4

EPOCH          = 2026-01-20T06:48:56.038752
MEAN_MOTION    = 14.87461589
ECCENTRICITY   = .00009454
INCLINATION    = 98.1743
RA_OF_ASC_NODE = 281.0951
ARG_OF_PERICENTER = 135.7666
MEAN_ANOMALY   = 224.3625

EPHEMERIS_TYPE = 0
CLASSIFICATION_TYPE = U
NORAD_CAT_ID   = 25977
ELEMENT_SET_NO = 999
REV_AT_EPOCH   = 67806
BSTAR          = .32349258E-3
MEAN_MOTION_DOT = .2872E-4
MEAN_MOTION_DDOT = 0

CCSDS_OMM_VERS = 2.0
CREATION_DATE  = 
ORIGINATOR     = 

OBJECT_NAME    = TERRA
OBJECT_ID      = 1999-068A
CENTER_NAME    = EARTH
REF_FRAME      = TEME
TIME_SYSTEM    = UTC
MEAN_ELEMENT_THEORY = SGP/SGP4

EPOCH          = 2026-01-20T07:04:13.200672
MEAN_MOTION    = 14.60951226
ECCENTRICITY   = .00019897
INCLINATION    = 97.9690
RA_OF_ASC_NODE = 75.5537
ARG_OF_PERICENTER = 9.4854
MEAN_ANOMALY   = 52.9255

EPHEMERIS_TYPE = 0
CLASSIFICATION_TYPE = U
NORAD_CAT_ID   = 25994
ELEMENT_SET_NO = 999
REV_AT_EPOCH   = 38801
BSTAR          = .1528073E-3
MEAN_MOTION_DOT = .704E-5
MEAN_MOTION_DDOT = 0

CCSDS_OMM_VERS = 2.0
CREATION_DATE  = 
ORIGINATOR     = 

OBJECT_NAME    = SL-16 R/B
OBJECT_ID      = 2000-006B
CENTER_NAME    = EARTH
REF_FRAME      = TEME
TIME_SYSTEM    = UTC
MEAN_ELEMENT_THEORY = SGP/SGP4

EPOCH          = 2026-01-20T04:36:46.475712
MEAN_MOTION    = 14.15812302
ECCENTRICITY   = .00188223
INCLINATION    = 71.0003
RA_OF_ASC_NODE = 199.8074
ARG_OF_PERICENTER = 256.9747
MEAN_ANOMALY   = 102.9275

EPHEMERIS_TYPE = 0
CLASSIFICATION_TYPE = U
NORAD_CAT_ID   = 26070
ELEMENT_SET_NO = 999
REV_AT_EPOCH   = 34169
BSTAR          = -.2578183E-4
MEAN_MOTION_DOT = -.99E-6
MEAN_MOTION_DDOT = 0

CCSDS_OMM_VERS = 2.0
CREATION_DATE  = 
ORIGINATOR     = 

OBJECT_NAME    = TITAN 4B R/B
OBJECT_ID      = 2000-047B
CENTER_NAME    = EARTH
REF_FRAME      = TEME
TIME_SYSTEM    = UTC
MEAN_ELEMENT_THEORY = SGP/SGP4

EPOCH          = 2026-01-20T06:07:07.967712
MEAN_MOTION    = 15.09094292
ECCENTRICITY   = .00368244
INCLINATION    = 67.9886
RA_OF_ASC_NODE = 176.6595
ARG_OF_PERICENTER = 96.3929
MEAN_ANOMALY   = 264.1415

EPHEMERIS_TYPE = 0
CLASSIFICATION_TYPE = U
NORAD_CAT_ID   = 26474
ELEMENT_SET_NO = 999
REV_AT_EPOCH   = 38560
BSTAR          = .42549594E-3
MEAN_MOTION_DOT = .6739E-4
MEAN_MOTION_DDOT = 0

CCSDS_OMM_VERS = 2.0
CREATION_DATE  = 
ORIGINATOR     = 

OBJECT_NAME    = ENVISAT
OBJECT_ID      = 2002-009A
CENTER_NAME    = EARTH
REF_FRAME      = TEME
TIME_SYSTEM    = UTC
MEAN_ELEMENT_THEORY = SGP/SGP4

EPOCH          = 2026-01-20T07:12:26.724384
MEAN_MOTION    = 14.39015435
ECCENTRICITY   = .00011679
INCLINATION    = 98.3654
RA_OF_ASC_NODE = 335.0745
ARG_OF_PERICENTER = 92.5527
MEAN_ANOMALY   = 34.8366

EPHEMERIS_TYPE = 0
CLASSIFICATION_TYPE = U
NORAD_CAT_ID   = 27386
ELEMENT_SET_NO = 999
REV_AT_EPOCH   = 25221
BSTAR          = .7690594E-4
MEAN_MOTION_DOT = .195E-5
MEAN_MOTION_DDOT = 0

