SL-16 R/B               
1 25400U 98043G   26020.31864265  .00000099  00000+0  60158-4 0  9991
2 25400  98.8180 333.3633 0010310 149.4055 210.7727 14.26035848432099
SL-16 R/B               
1 25407U 98045B   26020.18943624  .00000357  00000+0  20447-3 0  9995
2 25407  71.0116 283.5694 0005244 104.2557 255.9149 14.16183249420237
ISS (ZARYA)             
1 25544U 98067A   26020.17509289  .00021194  00000+0  38548-3 0  9998
2 25544  51.6334 312.1983 0007785  38.3265 321.8276 15.49442598548811
CZ-4B R/B               
1 25732U 99025C   26020.12837563  .00000072  00000+0  55202-4 0  9995
2 25732  98.6714  65.5397 0037996 123.8517 299.3717 14.18253451381286
OKEAN-O                 
1 25860U 99039A   26020.11853765  .00001036  00000+0  14307-3 0  9994
2 25860  97.9543  80.4785 0001771 103.3711 256.7698 14.80237062427205
SL-16 R/B               
1 25861U 99039B   26020.14442026  .00000786  00000+0  10665-3 0  9996
2 25861  98.0066  79.2879 0015898  57.8221 302.4531 14.81648714429671
DELTA 2 R/B             
1 25876U 99041E   26020.30165815  .00003245  00000+0  55903-3 0  9998
2 25876  51.7630 134.4977 0503326 205.4652 152.0685 14.11582304356190
HELIOS 1B               
1 25977U 99064A   26020.28398193  .00002872  00000+0  32349-3 0  9993
2 25977  98.1743 281.0951 0000945 135.7666 224.3625 14.87461589678066
TERRA                   
1 25994U 99068A   26020.29459723  .00000704  00000+0  15281-3 0  9992
2 25994  97.9690  75.5537 0001989   9.4854  52.9255 14.60951226388014
SL-16 R/B               
1 26070U 00006B   26020.19220458 -.00000099  00000+0 -25782-4 0  9999
2 26070  71.0003 199.8074 0018822 256.9747 102.9275 14.15812302341693
TITAN 4B R/B            
1 26474U 00047B   26020.25495333  .00006739  00000+0  42550-3 0  9991
2 26474  67.9886 176.6595 0036824  96.3929 264.1415 15.09094292385605
ENVISAT                 
1 27386U 02009A   26020.30030931  .00000195  00000+0  76906-4 0  9992
2 27386  98.3654 335.0745 0001167  92.5527  34.8366 14.39015435252212
